#cP2017  8 31  0  0  0.00000000     289 d+D   IGS14 FIT AIUB
## 1964 345600.00000000   300.00000000 57996 0.0000000000000
+   82   G01G02G03G04G05G06G07G08G09G10G11G12G13G14G15G16G17
+        G18G19G20G21G22G23G24G25G26G27G28G29G30G31G32R01R02
+        R03R04R05R06R07R08R09R10R11R13R15R16R17R18R19R20R21
+        R22R23R24R26E01E02E03E04E05E07E08E09E11E12E14E18E19
+        E22E24E26E30C06C07C08C09C10C11C12C13C14J01  0  0  0
++         5  5  5  5  5  5  5  5  5  5  5  5  5  5  5  5  5
++         5  5  5  5  5  5  5  5  5  5  5  5  5  5  5  5  5
++         5  5  5  5  5  5  6  5  5  5  5  5  5  5  5  5  5
++         5  5  5  5  5  5  5  5  5  5  5  5  5  5  5  5  5
++         5  5  5  5  5  5  5  5  5  5  5  5  5  6  0  0  0
%c M  cc GPS ccc cccc cccc cccc cccc ccccc ccccc ccccc ccccc
%c cc cc ccc ccc cccc cccc cccc cccc ccccc ccccc ccccc ccccc
%f  1.2500000  1.025000000  0.00000000000  0.000000000000000
%f  0.0000000  0.000000000  0.00000000000  0.000000000000000
%i    0    0    0    0      0      0      0      0         0
%i    0    0    0    0      0      0      0      0         0
/* CODE MGEX orbits and clocks                              
/* of DOY 17243                                             
/*                                                          
/* PCV:IGS14      OL/AL:FES2004  NONE     YN ORB:CoN CLK:CoN
*  2017  8 31  1 50  0.00000000
PG01 -13333.454665  12426.210801  19089.436146     55.602609
PG02  14140.641663  11284.816946 -19031.939964    341.717983
PG03 -22609.600734  13825.410665  -1390.224032    -73.090104
PG04 -22805.060057 -13703.974095  -3801.696233     18.168072
PG05  21769.386850    116.408142 -15453.173351    -31.204394
PG06   7138.587763  23250.716915 -10642.188215    393.262244
PG07  -6561.404288  24043.862861  -8312.995893    308.893092
PG08 -23230.880914  -3404.125131  12562.851570    -71.789389
PG09  -7020.115736  13714.405141 -21659.475995    434.583561
PG10  -1080.328115 -16251.178297  20983.615247     51.947055
PG11 -14550.598734   7156.710475  20467.508513   -712.579306
PG12  24339.604748 -10012.940437   2522.859576    374.326552
PG13  22931.979579  10977.026638   7518.052456    -90.571340
PG14 -16857.625275 -18966.653282   8409.701880    -82.338990
PG15  22479.773884   -757.399765  14234.603798   -355.295801
PG16 -20715.444435  -2552.393687 -16793.404203     36.915508
PG17   9481.271638  19206.086339  16168.767947   -160.199166
PG18   8685.013131 -19693.374322  16031.170662    628.421944
PG19  16170.324558  18943.976079   8590.187698   -488.575419
PG20  23140.070281 -12350.753774  -4267.647291    485.033415
PG21   1945.872558 -26046.239449  -3751.651280   -483.133873
PG22 -24113.628334   8789.362976   7160.557673   -105.802269
PG23 -16683.534672   6627.594539 -19450.881328   -216.869250
PG24  14283.457397  -9678.825618  20041.506102    -39.285281
PG25  18424.753777 -16981.749880  -8633.802160   -448.045509
PG26 -12784.065825  -9753.414290 -21156.027708   -438.947058
PG27 -23559.100064 -12384.590340   1789.718140    318.217071
PG28  -3740.935070  16823.092029  20841.808034    641.785364
PG29  10215.955956 -10843.920987 -21999.557120    568.623503
PG30    316.673008  26313.989530   2952.952156    143.111464
PG31  -7985.864880 -21564.975009 -12869.569553    178.422975
PG32 -12611.311212 -18755.271601  14024.440618   -492.218423
PR01  14020.126202   8137.286068 -19695.628954     14.831465
PR02  25196.648648   -484.318309  -3748.400392    267.853585
PR03  20060.985078  -8253.174972  13429.593106    109.459554
PR04   2763.594271 -11160.072654  22786.274787    228.879823
PR05 -15355.019815  -7595.725050  18891.285699   -156.317552
PR06 -25327.079702   1217.072501   2908.600570    116.850626
PR07 -19902.513558   8307.225979 -13611.408488    -15.104695
PR08  -3474.106453  11143.134783 -22627.320871    -26.764993
PR09 -12883.713118   2567.717239 -21835.280482     36.344815
PR10 -13955.208528  19043.163661  -9558.561045      9.781438
PR11  -6743.118322  23140.712229   8290.500345     -9.018097
PR13  13089.315275  -4694.407317  21375.016486     -2.239117
PR15   8407.474018 -23409.493824  -5429.652902     -0.570448
PR16  -4488.294646 -13962.122868 -20859.271609     73.095603
PR17   8057.124412  -7235.589727 -23092.523425     67.772933
PR18  -4493.866546 -19368.030000 -16009.381632    164.290662
PR19 -14402.747375 -21040.874985    617.939892    -21.593641
PR20 -15946.538494  -9600.151447  17464.108631   -305.330569
PR21  -7886.571338   7326.965268  23119.473736    131.902994
PR22   5469.997920  19892.046009  14910.637991     27.637927
PR23  15648.055086  19861.753228  -3392.216822    104.888359
PR24  16064.896388   9016.041376 -17670.960967   -155.120680
PR26 -15957.127662  -8593.715395  17942.367562 999999.999999
PE01  16993.704050   2469.163758  24116.914217   -149.764425
PE02 -16988.758251  -2465.263836 -24108.039451     -8.089263
PE03 -28326.528654  -6027.451953   6103.316558     66.998861
PE04  26011.838078  -7140.726282  12193.530688    130.234317
PE05 -14040.579314 -15668.115631  20828.783275    429.577820
PE07  -8439.441872  16118.909642 -23334.588315    178.132529
PE08 -25983.893759   7279.493982 -12147.689554   6749.473230
PE09   8376.950816 -16059.203605  23425.534923   7030.386340
PE11    915.673772 -23956.819630 -17379.390811   1799.731560
PE12  14567.460194  -7991.087437 -24499.798304   2284.421590
PE14   5159.471413 -20861.415740 -24328.185485   6724.483710
PE18  -6439.610452  13747.463560  18014.870107   6837.833350
PE19  27676.502886   6987.623268  -7813.055943     13.640451
PE22 -20029.234310 -12358.484739  17931.476108   6585.278740
PE24  12264.142391 -26190.512065  -6303.854026   5686.149830
PE26  13548.595394  26323.004354   -201.412408   6896.229460
PE30 -20819.557554  16896.095916 -12538.762251   6527.370380
PC06 -18327.181365  20979.473091 -31519.337455      0.929959
PC07 -21333.173057  36011.846285   2819.712368    101.203138
PC08  -5997.394155  30289.579468  28858.145198   -585.409345
PC09   -635.714407  24526.846929 -34141.054652   -887.966796
PC10 -10227.027193  37560.904771  15861.640299    138.787907
PC11  22640.697635  11798.826191 -11329.148031    519.371014
PC12  15541.099811  22039.198341   7429.246430    174.398549
PC13   5261.531203  38349.388624  16980.088416    710.715225
PC14  24581.938255   2341.443220 -12890.964118    855.840796
PJ01 -34391.486134  23041.154104  -3249.478351    -44.031613
EOF
